#aV2014  1 13  0  0  0.00000000     288 DD+AD WGS84 FIT  NGA
## 1775  86400.00000000   300.00000000 56670 0.0000000000000
+   31     1  2  3  4  5  6  7  8  9 10 11 12 13 14 15 16 17
+         18 19 20 21 22 23 24 25 26 27 28 29 31 32  0  0  0
+          0  0  0  0  0  0  0  0  0  0  0  0  0  0  0  0  0
+          0  0  0  0  0  0  0  0  0  0  0  0  0  0  0  0  0
+          0  0  0  0  0  0  0  0  0  0  0  0  0  0  0  0  0
++         2  2  2  2  2  2  2  2  2  2  2  2  2  2  2  2  2
++         2  2  2  2  2  2  2  2  2  2  2  2  2  2  0  0  0
++         0  0  0  0  0  0  0  0  0  0  0  0  0  0  0  0  0
++         0  0  0  0  0  0  0  0  0  0  0  0  0  0  0  0  0
++         0  0  0  0  0  0  0  0  0  0  0  0  0  0  0  0  0
%c cc cc ccc ccc cccc cccc cccc cccc ccccc ccccc ccccc ccccc
%c cc cc ccc ccc cccc cccc cccc cccc ccccc ccccc ccccc ccccc
%f  0.0000000  0.000000000  0.00000000000  0.000000000000000
%f  0.0000000  0.000000000  0.00000000000  0.000000000000000
%i    0    0    0    0      0      0      0      0         0
%i    0    0    0    0      0      0      0      0         0
/*      NGA, ST. LOUIS,MO.                                  
/*   EPHEMERIS COMPUTED FROM  1 DAYS OF DATA                
/*   EPOCHA SMOOTHER                                       
/* CCCCCCCCCCCCCCCCCCCCCCCCCCCCCCCCCCCCCCCCCCCCCCCCCCCCCCCCC
*  2014  1 13  2 40  0.00000000
P  1 -11804.881870 -13422.157034 -19716.553163    100.111057                    
V  1  24878.526859  -1919.706247 -13496.653891      0.025126                    
P  2 -12073.408573  14462.431571  18776.978527    472.439127                    
V  2 -23645.874451   -555.110524 -15482.641258      0.022066                    
P  3   6550.372743 -25506.655414  -3185.949452    311.668447                    
V  3   4571.939827  -2023.979565  30987.487326      0.050878                    
P  4 -24718.427693   6463.858769   7397.163843      4.837181                    
V  4  -9891.808511  -2765.886024 -29169.995534      0.001195                    
P  5  -2195.714585  19906.977482  17325.986270   -392.539772                    
V  5 -13536.652978 -17690.795794  18721.419015      0.012488                    
P  6  13344.275850 -22334.247334   4192.943299    233.370299                    
V  6   1131.440906   6355.857196  31021.295062      0.154617                    
P  7 -24041.376603  -6370.929668   9832.199440    302.117960                    
V  7  12240.290170  -2029.265769  28502.492381      0.041625                    
P  8 -26814.415138  -1283.349634  -1493.951395     11.255309                    
V  8  -1933.988767  -1306.713793  32066.202258      0.002699                    
P  9 -26448.811293   2553.091344  -2476.632304    297.615219                    
V  9  -2541.016917  -1856.507345  31940.249409      0.028276                    
P 10 -15864.824090   3016.863839  20816.600453   -109.773569                    
V 10 -13590.798965 -23567.726553  -6413.184458     -0.015419                    
P 11  -4219.954647 -16457.079908 -20888.113412   -455.083949                    
V 11  24405.950940  -8362.337078   1926.808328     -0.032372                    
P 12  11022.477417  24025.667025  -3652.628030    179.882402                    
V 12  -3820.628710  -3037.961728 -31724.460981      0.023245                    
P 13 -12241.941107  -8222.877277  21955.485005     40.443121                    
V 13  15786.314850 -23303.741341    -65.738770     -0.037912                    
P 14  18784.813630  -9344.303779 -15986.133692    204.815751                    
V 14  -9500.639076  18513.822904 -21834.079766     -0.012343                    
P 15   -892.266805  23144.592188 -12782.397077   -157.326179                    
V 15  -9886.956722  13335.121110  25209.062126     -0.020399                    
P 16   2489.990579 -19569.864917  17580.456162   -235.578228                    
V 16  12069.479978  18992.175171  19734.287879      0.013581                    
P 17 -18512.649165  10197.551810 -15694.774102    -58.713372                    
V 17   8609.106014 -18662.739004 -22175.267567     -0.033291                    
P 18  19359.055487  13281.150060 -12305.330953    295.813403                    
V 18   6104.844640  15375.584820  24985.319056      0.021795                    
P 19   3978.475190 -22589.770241 -13125.549982   -431.838818                    
V 19  11161.672517 -12561.485588  25667.335495     -0.025340                    
P 20 -14338.738034 -22357.238925  -1666.408242    152.509258                    
V 20   4203.359736   -655.737857 -30837.038952      0.031788                    
P 21  24957.681968   5480.557717   8708.899343   -337.887748                    
V 21 -10022.205060   3295.037349  28174.492599     -0.021596                    
P 22  17919.505562    896.756068 -19429.531836    206.551468                    
V 22  12147.128948  22128.242320  11948.449230      0.021993                    
P 23  -5242.268469 -18072.248472  18675.994966     13.166879                    
V 23  12876.888692 -19958.731978 -16177.065051     -0.032840                    
P 24   6615.627782  14616.238729 -21185.686892    -21.455158                    
V 24 -26827.619986   1821.827760  -7042.513842     -0.006395                    
P 25  17850.032097  17974.092882   8127.622350      8.715148                    
V 25   3724.332146   9885.346709 -29721.874708      0.023033                    
P 26 -12246.225517  23156.522348  -3813.744867    195.600451                    
V 26  -4324.591733   2020.745229  31832.149261     -0.105799                    
P 27  12416.615921 -23461.380896     29.567293    -14.128114                    
V 27   2450.884525   1343.072465  31811.343061     -0.020546                    
P 28 -17220.895050  -5413.701510 -18932.469576    324.180065                    
V 28 -11077.590976 -22693.819729  15911.781111      0.030513                    
P 29  10387.582261  11547.691180  21593.895273    502.866614                    
V 29 -14378.407157  23193.119027  -5457.174319      0.029080                    
P 31  23077.960731  -7684.113944  11197.795963    332.288485                    
V 31  13841.308032   1552.905370 -27577.598148      0.003996                    
P 32  -3983.766191 -24329.151015 -10487.074277   -502.611927                    
V 32   8210.005085  10704.131758 -27213.487854      0.056655                    
EOF
